{
  "type": "FeatureCollection",
  "features": [
    {
      "type": "Feature",
      "properties": {
        "norad_id": 29816,
        "name": "FENGYUN 1C DEB",
        "group": "fengyun-1c-debris",
        "lat": 26.492918451349603,
        "lon": -162.9550034692594,
        "alt_km": 906.6977437519081,
        "timestamp": "2025-12-07T20:38:14.335473+00:00",
        "meta_object_name": "FENGYUN 1C DEB",
        "meta_object_id": "1999-025DJ",
        "meta_epoch": "2025-12-07T01:18:01.630656",
        "meta_mean_motion": 14.4421506,
        "meta_eccentricity": 0.02378036,
        "meta_inclination": 98.9928,
        "meta_ra_of_asc_node": 200.7198,
        "meta_arg_of_pericenter": 194.0955,
        "meta_mean_anomaly": 326.9726,
        "meta_ephemeris_type": 0,
        "meta_classification_type": "U",
        "meta_norad_cat_id": 29816,
        "meta_element_set_no": 999,
        "meta_rev_at_epoch": 98105,
        "meta_bstar": 0.0016188679,
        "meta_mean_motion_dot": 7.806e-05,
        "meta_mean_motion_ddot": 0,
        "tle_line1": "1 29816U 99025DJ  25341.05418554  .00007806  00000+0  16189-2 0  9995",
        "tle_line2": "2 29816  98.9928 200.7198 0237803 194.0955 326.9726 14.44215060981051"
      },
      "geometry": {
        "type": "Point",
        "coordinates": [
          -162.9550034692594,
          26.492918451349603
        ]
      }
    },
    {
      "type": "Feature",
      "properties": {
        "norad_id": 29817,
        "name": "FENGYUN 1C DEB",
        "group": "fengyun-1c-debris",
        "lat": 45.048162905425706,
        "lon": 159.93943764446686,
        "alt_km": 843.365036240164,
        "timestamp": "2025-12-07T20:38:14.335483+00:00",
        "meta_object_name": "FENGYUN 1C DEB",
        "meta_object_id": "1999-025DK",
        "meta_epoch": "2025-12-07T06:28:59.981088",
        "meta_mean_motion": 14.14241896,
        "meta_eccentricity": 0.00125517,
        "meta_inclination": 98.5571,
        "meta_ra_of_asc_node": 330.7002,
        "meta_arg_of_pericenter": 30.6014,
        "meta_mean_anomaly": 342.5997,
        "meta_ephemeris_type": 0,
        "meta_classification_type": "U",
        "meta_norad_cat_id": 29817,
        "meta_element_set_no": 999,
        "meta_rev_at_epoch": 97318,
        "meta_bstar": 0.00054698338,
        "meta_mean_motion_dot": 1.003e-05,
        "meta_mean_motion_ddot": 0,
        "tle_line1": "1 29817U 99025DK  25341.27013867  .00001003  00000+0  54698-3 0  9999",
        "tle_line2": "2 29817  98.5571 330.7002 0012551  30.6014 342.5997 14.14241896973184"
      },
      "geometry": {
        "type": "Point",
        "coordinates": [
          159.93943764446686,
          45.048162905425706
        ]
      }
    },
    {
      "type": "Feature",
      "properties": {
        "norad_id": 29818,
        "name": "FENGYUN 1C DEB",
        "group": "fengyun-1c-debris",
        "lat": 39.530015481808434,
        "lon": -147.91362448722506,
        "alt_km": 791.3575734978458,
        "timestamp": "2025-12-07T20:38:14.335493+00:00",
        "meta_object_name": "FENGYUN 1C DEB",
        "meta_object_id": "1999-025DL",
        "meta_epoch": "2025-12-07T02:26:16.036800",
        "meta_mean_motion": 14.04496364,
        "meta_eccentricity": 0.01154853,
        "meta_inclination": 98.7219,
        "meta_ra_of_asc_node": 218.6355,
        "meta_arg_of_pericenter": 41.5947,
        "meta_mean_anomaly": 126.5118,
        "meta_ephemeris_type": 0,
        "meta_classification_type": "U",
        "meta_norad_cat_id": 29818,
        "meta_element_set_no": 999,
        "meta_rev_at_epoch": 96730,
        "meta_bstar": 0.000283909,
        "meta_mean_motion_dot": 4.39e-06,
        "meta_mean_motion_ddot": 0,
        "tle_line1": "1 29818U 99025DL  25341.10157450  .00000439  00000+0  28391-3 0  9992",
        "tle_line2": "2 29818  98.7219 218.6355 0115485  41.5947 126.5118 14.04496364967300"
      },
      "geometry": {
        "type": "Point",
        "coordinates": [
          -147.91362448722506,
          39.530015481808434
        ]
      }
    },
    {
      "type": "Feature",
      "properties": {
        "norad_id": 29819,
        "name": "FENGYUN 1C DEB",
        "group": "fengyun-1c-debris",
        "lat": -14.859034011726598,
        "lon": 143.46733750614803,
        "alt_km": 945.7737803052541,
        "timestamp": "2025-12-07T20:38:14.335503+00:00",
        "meta_object_name": "FENGYUN 1C DEB",
        "meta_object_id": "1999-025DM",
        "meta_epoch": "2025-12-07T04:36:03.153888",
        "meta_mean_motion": 14.021836,
        "meta_eccentricity": 0.01915344,
        "meta_inclination": 98.7308,
        "meta_ra_of_asc_node": 325.1635,
        "meta_arg_of_pericenter": 82.5402,
        "meta_mean_anomaly": 339.3316,
        "meta_ephemeris_type": 0,
        "meta_classification_type": "U",
        "meta_norad_cat_id": 29819,
        "meta_element_set_no": 999,
        "meta_rev_at_epoch": 96542,
        "meta_bstar": 0.0006271189,
        "meta_mean_motion_dot": 1.087e-05,
        "meta_mean_motion_ddot": 0,
        "tle_line1": "1 29819U 99025DM  25341.19170317  .00001087  00000+0  62712-3 0  9994",
        "tle_line2": "2 29819  98.7308 325.1635 0191534  82.5402 339.3316 14.02183600965424"
      },
      "geometry": {
        "type": "Point",
        "coordinates": [
          143.46733750614803,
          -14.859034011726598
        ]
      }
    },
    {
      "type": "Feature",
      "properties": {
        "norad_id": 29820,
        "name": "FENGYUN 1C DEB",
        "group": "fengyun-1c-debris",
        "lat": 15.945422544682344,
        "lon": 171.60555176013438,
        "alt_km": 883.0208269224095,
        "timestamp": "2025-12-07T20:38:14.335513+00:00",
        "meta_object_name": "FENGYUN 1C DEB",
        "meta_object_id": "1999-025DN",
        "meta_epoch": "2025-12-06T21:56:47.735232",
        "meta_mean_motion": 14.0258996,
        "meta_eccentricity": 0.00718011,
        "meta_inclination": 98.8316,
        "meta_ra_of_asc_node": 348.143,
        "meta_arg_of_pericenter": 254.1417,
        "meta_mean_anomaly": 179.195,
        "meta_ephemeris_type": 0,
        "meta_classification_type": "U",
        "meta_norad_cat_id": 29820,
        "meta_element_set_no": 999,
        "meta_rev_at_epoch": 96478,
        "meta_bstar": 0.00078772976,
        "meta_mean_motion_dot": 1.199e-05,
        "meta_mean_motion_ddot": 0,
        "tle_line1": "1 29820U 99025DN  25340.91444138  .00001199  00000+0  78773-3 0  9998",
        "tle_line2": "2 29820  98.8316 348.1430 0071801 254.1417 179.1950 14.02589960964782"
      },
      "geometry": {
        "type": "Point",
        "coordinates": [
          171.60555176013438,
          15.945422544682344
        ]
      }
    },
    {
      "type": "Feature",
      "properties": {
        "norad_id": 29821,
        "name": "FENGYUN 1C DEB",
        "group": "fengyun-1c-debris",
        "lat": 60.093438207066384,
        "lon": 21.139857910637772,
        "alt_km": 761.5344729691178,
        "timestamp": "2025-12-07T20:38:14.335523+00:00",
        "meta_object_name": "FENGYUN 1C DEB",
        "meta_object_id": "1999-025DP",
        "meta_epoch": "2025-12-07T03:27:06.935328",
        "meta_mean_motion": 14.11029572,
        "meta_eccentricity": 0.03764013,
        "meta_inclination": 98.8738,
        "meta_ra_of_asc_node": 36.1909,
        "meta_arg_of_pericenter": 136.5093,
        "meta_mean_anomaly": 253.6153,
        "meta_ephemeris_type": 0,
        "meta_classification_type": "U",
        "meta_norad_cat_id": 29821,
        "meta_element_set_no": 999,
        "meta_rev_at_epoch": 96432,
        "meta_bstar": 0.0012916774,
        "meta_mean_motion_dot": 4.485e-05,
        "meta_mean_motion_ddot": 0,
        "tle_line1": "1 29821U 99025DP  25341.14383027  .00004485  00000+0  12917-2 0  9992",
        "tle_line2": "2 29821  98.8738  36.1909 0376401 136.5093 253.6153 14.11029572964324"
      },
      "geometry": {
        "type": "Point",
        "coordinates": [
          21.139857910637772,
          60.093438207066384
        ]
      }
    },
    {
      "type": "Feature",
      "properties": {
        "norad_id": 29827,
        "name": "FENGYUN 1C DEB",
        "group": "fengyun-1c-debris",
        "lat": -41.33913808500638,
        "lon": 145.5295458543404,
        "alt_km": 833.9049677321173,
        "timestamp": "2025-12-07T20:38:14.335533+00:00",
        "meta_object_name": "FENGYUN 1C DEB",
        "meta_object_id": "1999-025DV",
        "meta_epoch": "2025-12-06T21:57:46.033632",
        "meta_mean_motion": 14.21673246,
        "meta_eccentricity": 0.00253031,
        "meta_inclination": 98.6018,
        "meta_ra_of_asc_node": 332.261,
        "meta_arg_of_pericenter": 339.6356,
        "meta_mean_anomaly": 89.8174,
        "meta_ephemeris_type": 0,
        "meta_classification_type": "U",
        "meta_norad_cat_id": 29827,
        "meta_element_set_no": 999,
        "meta_rev_at_epoch": 97780,
        "meta_bstar": 0.00057916998,
        "meta_mean_motion_dot": 1.233e-05,
        "meta_mean_motion_ddot": 0,
        "tle_line1": "1 29827U 99025DV  25340.91511613  .00001233  00000+0  57917-3 0  9994",
        "tle_line2": "2 29827  98.6018 332.2610 0025303 339.6356  89.8174 14.21673246977801"
      },
      "geometry": {
        "type": "Point",
        "coordinates": [
          145.5295458543404,
          -41.33913808500638
        ]
      }
    }
  ]
}